{
  "type": "FeatureCollection",
  "features": [
    {
      "type": "Feature",
      "properties": {
        "norad_id": 40069,
        "name": "METEOR-M 2",
        "group": "weather",
        "lat": -52.23834518990225,
        "lon": 132.64830342226645,
        "alt_km": 824.2901894223542,
        "timestamp": "2025-12-12T03:50:52.059145+00:00",
        "meta_object_name": "METEOR-M 2",
        "meta_object_id": "2014-037A",
        "meta_epoch": "2025-12-11T14:55:43.423104",
        "meta_mean_motion": 14.2138611,
        "meta_eccentricity": 0.00049189,
        "meta_inclination": 98.4904,
        "meta_ra_of_asc_node": 323.2492,
        "meta_arg_of_pericenter": 213.6608,
        "meta_mean_anomaly": 146.4258,
        "meta_ephemeris_type": 0,
        "meta_classification_type": "U",
        "meta_norad_cat_id": 40069,
        "meta_element_set_no": 999,
        "meta_rev_at_epoch": 59267,
        "meta_bstar": 0.00018144395,
        "meta_mean_motion_dot": 3.54e-06,
        "meta_mean_motion_ddot": 0,
        "tle_line1": "1 40069U 14037A   25345.62203036  .00000354  00000+0  18144-3 0  9997",
        "tle_line2": "2 40069  98.4904 323.2492 0004918 213.6608 146.4258 14.21386110592674"
      },
      "geometry": {
        "type": "Point",
        "coordinates": [
          132.64830342226645,
          -52.23834518990225
        ]
      }
    },
    {
      "type": "Feature",
      "properties": {
        "norad_id": 40267,
        "name": "HIMAWARI-8",
        "group": "weather",
        "lat": 0.007181849739688067,
        "lon": -80.53246071392076,
        "alt_km": 35781.885185477804,
        "timestamp": "2025-12-12T03:50:52.059157+00:00",
        "meta_object_name": "HIMAWARI-8",
        "meta_object_id": "2014-060A",
        "meta_epoch": "2025-12-11T14:10:41.232000",
        "meta_mean_motion": 1.00270191,
        "meta_eccentricity": 0.00012198,
        "meta_inclination": 0.0353,
        "meta_ra_of_asc_node": 192.9381,
        "meta_arg_of_pericenter": 110.4566,
        "meta_mean_anomaly": 130.4805,
        "meta_ephemeris_type": 0,
        "meta_classification_type": "U",
        "meta_norad_cat_id": 40267,
        "meta_element_set_no": 999,
        "meta_rev_at_epoch": 4087,
        "meta_bstar": 0,
        "meta_mean_motion_dot": -2.68e-06,
        "meta_mean_motion_ddot": 0,
        "tle_line1": "1 40267U 14060A   25345.59075500 -.00000268  00000+0  00000+0 0  9995",
        "tle_line2": "2 40267   0.0353 192.9381 0001219 110.4566 130.4805  1.00270191 40872"
      },
      "geometry": {
        "type": "Point",
        "coordinates": [
          -80.53246071392076,
          0.007181849739688067
        ]
      }
    },
    {
      "type": "Feature",
      "properties": {
        "norad_id": 40367,
        "name": "FENGYUN 2G",
        "group": "weather",
        "lat": 1.4700431090262678,
        "lon": -121.58272288385146,
        "alt_km": 35776.8937966623,
        "timestamp": "2025-12-12T03:50:52.059169+00:00",
        "meta_object_name": "FENGYUN 2G",
        "meta_object_id": "2014-090A",
        "meta_epoch": "2025-12-11T15:41:47.506848",
        "meta_mean_motion": 1.00264387,
        "meta_eccentricity": 0.00031248,
        "meta_inclination": 5.1659,
        "meta_ra_of_asc_node": 75.109,
        "meta_arg_of_pericenter": 195.9109,
        "meta_mean_anomaly": 144.5966,
        "meta_ephemeris_type": 0,
        "meta_classification_type": "U",
        "meta_norad_cat_id": 40367,
        "meta_element_set_no": 999,
        "meta_rev_at_epoch": 4011,
        "meta_bstar": 0,
        "meta_mean_motion_dot": -2.94e-06,
        "meta_mean_motion_ddot": 0,
        "tle_line1": "1 40367U 14090A   25345.65402207 -.00000294  00000+0  00000+0 0  9993",
        "tle_line2": "2 40367   5.1659  75.1090 0003124 195.9109 144.5966  1.00264387 40116"
      },
      "geometry": {
        "type": "Point",
        "coordinates": [
          -121.58272288385146,
          1.4700431090262678
        ]
      }
    },
    {
      "type": "Feature",
      "properties": {
        "norad_id": 40732,
        "name": "METEOSAT-11 (MSG-4)",
        "group": "weather",
        "lat": 2.6583956039399244,
        "lon": 148.10259015127642,
        "alt_km": 35784.36553004866,
        "timestamp": "2025-12-12T03:50:52.059182+00:00",
        "meta_object_name": "METEOSAT-11 (MSG-4)",
        "meta_object_id": "2015-034A",
        "meta_epoch": "2025-12-11T04:59:33.728928",
        "meta_mean_motion": 1.00267015,
        "meta_eccentricity": 9.465e-05,
        "meta_inclination": 2.7315,
        "meta_ra_of_asc_node": 72.0057,
        "meta_arg_of_pericenter": 124.5533,
        "meta_mean_anomaly": 327.8196,
        "meta_ephemeris_type": 0,
        "meta_classification_type": "U",
        "meta_norad_cat_id": 40732,
        "meta_element_set_no": 999,
        "meta_rev_at_epoch": 533,
        "meta_bstar": 0,
        "meta_mean_motion_dot": 6.7e-07,
        "meta_mean_motion_ddot": 0,
        "tle_line1": "1 40732U 15034A   25345.20802927  .00000067  00000+0  00000+0 0  9999",
        "tle_line2": "2 40732   2.7315  72.0057 0000946 124.5533 327.8196  1.00267015  5338"
      },
      "geometry": {
        "type": "Point",
        "coordinates": [
          148.10259015127642,
          2.6583956039399244
        ]
      }
    },
    {
      "type": "Feature",
      "properties": {
        "norad_id": 41105,
        "name": "ELEKTRO-L 2",
        "group": "weather",
        "lat": 4.878825875596397,
        "lon": 124.13970414052626,
        "alt_km": 35799.27330113656,
        "timestamp": "2025-12-12T03:50:52.059194+00:00",
        "meta_object_name": "ELEKTRO-L 2",
        "meta_object_id": "2015-074A",
        "meta_epoch": "2025-12-11T02:11:38.541984",
        "meta_mean_motion": 1.00272182,
        "meta_eccentricity": 0.00038781,
        "meta_inclination": 6.222,
        "meta_ra_of_asc_node": 72.8471,
        "meta_arg_of_pericenter": 199.5378,
        "meta_mean_anomaly": 186.0824,
        "meta_ephemeris_type": 0,
        "meta_classification_type": "U",
        "meta_norad_cat_id": 41105,
        "meta_element_set_no": 999,
        "meta_rev_at_epoch": 3662,
        "meta_bstar": 0,
        "meta_mean_motion_dot": -1.12e-06,
        "meta_mean_motion_ddot": 0,
        "tle_line1": "1 41105U 15074A   25345.09141831 -.00000112  00000+0  00000+0 0  9997",
        "tle_line2": "2 41105   6.2220  72.8471 0003878 199.5378 186.0824  1.00272182 36621"
      },
      "geometry": {
        "type": "Point",
        "coordinates": [
          124.13970414052626,
          4.878825875596397
        ]
      }
    },
    {
      "type": "Feature",
      "properties": {
        "norad_id": 41752,
        "name": "INSAT-3DR",
        "group": "weather",
        "lat": 0.0553287994077997,
        "lon": -147.31985356922712,
        "alt_km": 35753.79306065799,
        "timestamp": "2025-12-12T03:50:52.059206+00:00",
        "meta_object_name": "INSAT-3DR",
        "meta_object_id": "2016-054A",
        "meta_epoch": "2025-12-11T13:51:50.536800",
        "meta_mean_motion": 1.00270715,
        "meta_eccentricity": 0.00144156,
        "meta_inclination": 0.0891,
        "meta_ra_of_asc_node": 86.6032,
        "meta_arg_of_pericenter": 183.9498,
        "meta_mean_anomaly": 91.9438,
        "meta_ephemeris_type": 0,
        "meta_classification_type": "U",
        "meta_norad_cat_id": 41752,
        "meta_element_set_no": 999,
        "meta_rev_at_epoch": 3393,
        "meta_bstar": 0,
        "meta_mean_motion_dot": -7e-07,
        "meta_mean_motion_ddot": 0,
        "tle_line1": "1 41752U 16054A   25345.57766825 -.00000070  00000+0  00000+0 0  9996",
        "tle_line2": "2 41752   0.0891  86.6032 0014415 183.9498  91.9438  1.00270715 33936"
      },
      "geometry": {
        "type": "Point",
        "coordinates": [
          -147.31985356922712,
          0.0553287994077997
        ]
      }
    },
    {
      "type": "Feature",
      "properties": {
        "norad_id": 41836,
        "name": "HIMAWARI-9",
        "group": "weather",
        "lat": -0.020743210404215697,
        "lon": -80.40596218504945,
        "alt_km": 35781.78189172757,
        "timestamp": "2025-12-12T03:50:52.059218+00:00",
        "meta_object_name": "HIMAWARI-9",
        "meta_object_id": "2016-064A",
        "meta_epoch": "2025-12-11T07:19:57.783360",
        "meta_mean_motion": 1.00270622,
        "meta_eccentricity": 0.00011273,
        "meta_inclination": 0.0322,
        "meta_ra_of_asc_node": 90.3935,
        "meta_arg_of_pericenter": 181.1554,
        "meta_mean_anomaly": 59.4836,
        "meta_ephemeris_type": 0,
        "meta_classification_type": "U",
        "meta_norad_cat_id": 41836,
        "meta_element_set_no": 999,
        "meta_rev_at_epoch": 3332,
        "meta_bstar": 0,
        "meta_mean_motion_dot": -2.68e-06,
        "meta_mean_motion_ddot": 0,
        "tle_line1": "1 41836U 16064A   25345.30552990 -.00000268  00000+0  00000+0 0  9996",
        "tle_line2": "2 41836   0.0322  90.3935 0001127 181.1554  59.4836  1.00270622 33322"
      },
      "geometry": {
        "type": "Point",
        "coordinates": [
          -80.40596218504945,
          -0.020743210404215697
        ]
      }
    }
  ]
}